{"type": "FeatureCollection", "features": [ {"type": "Feature", "properties": {"norad_id": 32384, "name": "GPS BIIRM-5 (PRN 29)", "group": "gps-ops", "lat": 25.988105062341827, "lon": 81.36762026351235, "alt_km": 20099.744077732783, "timestamp": "2025-12-24T05:51:19.867572+00:00", "meta": {"OBJECT_NAME": "GPS BIIRM-5 (PRN 29)", "OBJECT_ID": "2007-062A", "EPOCH": "2025-12-21T07:21:56.819232", "MEAN_MOTION": 2.00549292, "ECCENTRICITY": 0.00313364, "INCLINATION": 55.1749, "RA_OF_ASC_NODE": 281.3024, "ARG_OF_PERICENTER": 162.517, "MEAN_ANOMALY": 24.7495, "EPHEMERIS_TYPE": 0, "CLASSIFICATION_TYPE": "U", "NORAD_CAT_ID": 32384, "ELEMENT_SET_NO": 999, "REV_AT_EPOCH": 13194, "BSTAR": 0, "MEAN_MOTION_DOT": -2.4e-07, "MEAN_MOTION_DDOT": 0}, "tle": {"line1": "1 32384U 07062A   25355.30690763 -.00000024  00000+0  00000+0 0  9994", "line2": "2 32384  55.1749 281.3024 0031336 162.5170  24.7495  2.00549292131943"}}, "geometry": {"type": "Point", "coordinates": [81.36762026351235, 25.988105062341827]}}, {"type": "Feature", "properties": {"norad_id": 32711, "name": "GPS BIIRM-6 (PRN 07)", "group": "gps-ops", "lat": 50.71750874283725, "lon": -142.24845743485994, "alt_km": 20710.484379321817, "timestamp": "2025-12-24T05:51:19.867584+00:00", "meta": {"OBJECT_NAME": "GPS BIIRM-6 (PRN 07)", "OBJECT_ID": "2008-012A", "EPOCH": "2025-12-23T15:24:58.037760", "MEAN_MOTION": 2.00566087, "ECCENTRICITY": 0.02029294, "INCLINATION": 54.4783, "RA_OF_ASC_NODE": 156.9378, "ARG_OF_PERICENTER": 245.0761, "MEAN_ANOMALY": 112.7872, "EPHEMERIS_TYPE": 0, "CLASSIFICATION_TYPE": "U", "NORAD_CAT_ID": 32711, "ELEMENT_SET_NO": 999, "REV_AT_EPOCH": 13023, "BSTAR": 0, "MEAN_MOTION_DOT": 8.4e-07, "MEAN_MOTION_DDOT": 0}, "tle": {"line1": "1 32711U 08012A   25357.64233840  .00000084  00000+0  00000+0 0  9997", "line2": "2 32711  54.4783 156.9378 0202929 245.0761 112.7872  2.00566087130236"}}, "geometry": {"type": "Point", "coordinates": [-142.24845743485994, 50.71750874283725]}}, {"type": "Feature", "properties": {"norad_id": 35752, "name": "GPS BIIRM-8 (PRN 05)", "group": "gps-ops", "lat": 56.02704945525659, "lon": 128.35142171501354, "alt_km": 20040.598368011313, "timestamp": "2025-12-24T05:51:19.867595+00:00", "meta": {"OBJECT_NAME": "GPS BIIRM-8 (PRN 05)", "OBJECT_ID": "2009-043A", "EPOCH": "2025-12-22T09:03:38.471040", "MEAN_MOTION": 2.00565138, "ECCENTRICITY": 0.00515987, "INCLINATION": 56.0976, "RA_OF_ASC_NODE": 34.4031, "ARG_OF_PERICENTER": 81.7402, "MEAN_ANOMALY": 102.7505, "EPHEMERIS_TYPE": 0, "CLASSIFICATION_TYPE": "U", "NORAD_CAT_ID": 35752, "ELEMENT_SET_NO": 999, "REV_AT_EPOCH": 11981, "BSTAR": 0, "MEAN_MOTION_DOT": -5.3e-07, "MEAN_MOTION_DDOT": 0}, "tle": {"line1": "1 35752U 09043A   25356.37752860 -.00000053  00000+0  00000+0 0  9994", "line2": "2 35752  56.0976  34.4031 0051598  81.7402 102.7505  2.00565138119812"}}, "geometry": {"type": "Point", "coordinates": [128.35142171501354, 56.02704945525659]}}, {"type": "Feature", "properties": {"norad_id": 36585, "name": "GPS BIIF-1  (PRN 25)", "group": "gps-ops", "lat": -24.68127290978008, "lon": 54.91937576375558, "alt_km": 20462.8946744006, "timestamp": "2025-12-24T05:51:19.867607+00:00", "meta": {"OBJECT_NAME": "GPS BIIF-1  (PRN 25)", "OBJECT_ID": "2010-022A", "EPOCH": "2025-12-23T05:44:03.055200", "MEAN_MOTION": 2.00553739, "ECCENTRICITY": 0.01265225, "INCLINATION": 54.2985, "RA_OF_ASC_NODE": 215.6505, "ARG_OF_PERICENTER": 65.2085, "MEAN_ANOMALY": 139.2805, "EPHEMERIS_TYPE": 0, "CLASSIFICATION_TYPE": "U", "NORAD_CAT_ID": 36585, "ELEMENT_SET_NO": 999, "REV_AT_EPOCH": 11406, "BSTAR": 0, "MEAN_MOTION_DOT": 7.2e-07, "MEAN_MOTION_DDOT": 0}, "tle": {"line1": "1 36585U 10022A   25357.23892425  .00000072  00000+0  00000+0 0  9996", "line2": "2 36585  54.2985 215.6505 0126522  65.2085 139.2805  2.00553739114064"}}, "geometry": {"type": "Point", "coordinates": [54.91937576375558, -24.68127290978008]}}, {"type": "Feature", "properties": {"norad_id": 38833, "name": "GPS BIIF-3  (PRN 24)", "group": "gps-ops", "lat": -40.37314968992115, "lon": 111.84504799689014, "alt_km": 20398.3282066144, "timestamp": "2025-12-24T05:51:19.867618+00:00", "meta": {"OBJECT_NAME": "GPS BIIF-3  (PRN 24)", "OBJECT_ID": "2012-053A", "EPOCH": "2025-12-23T07:42:27.651168", "MEAN_MOTION": 2.00565064, "ECCENTRICITY": 0.01760539, "INCLINATION": 53.5596, "RA_OF_ASC_NODE": 150.8054, "ARG_OF_PERICENTER": 64.149, "MEAN_ANOMALY": 297.6308, "EPHEMERIS_TYPE": 0, "CLASSIFICATION_TYPE": "U", "NORAD_CAT_ID": 38833, "ELEMENT_SET_NO": 999, "REV_AT_EPOCH": 9591, "BSTAR": 0, "MEAN_MOTION_DOT": 7.4e-07, "MEAN_MOTION_DDOT": 0}, "tle": {"line1": "1 38833U 12053A   25357.32115337  .00000074  00000+0  00000+0 0  9992", "line2": "2 38833  53.5596 150.8054 0176053  64.1490 297.6308  2.00565064 95916"}}, "geometry": {"type": "Point", "coordinates": [111.84504799689014, -40.37314968992115]}}, {"type": "Feature", "properties": {"norad_id": 39166, "name": "GPS BIIF-4  (PRN 27)", "group": "gps-ops", "lat": 35.59311281332098, "lon": -53.407030459272434, "alt_km": 19810.620607954024, "timestamp": "2025-12-24T05:51:19.867630+00:00", "meta": {"OBJECT_NAME": "GPS BIIF-4  (PRN 27)", "OBJECT_ID": "2013-023A", "EPOCH": "2025-12-23T04:26:51.199584", "MEAN_MOTION": 2.00564619, "ECCENTRICITY": 0.013854, "INCLINATION": 54.643, "RA_OF_ASC_NODE": 276.1436, "ARG_OF_PERICENTER": 48.7451, "MEAN_ANOMALY": 312.486, "EPHEMERIS_TYPE": 0, "CLASSIFICATION_TYPE": "U", "NORAD_CAT_ID": 39166, "ELEMENT_SET_NO": 999, "REV_AT_EPOCH": 9235, "BSTAR": 0, "MEAN_MOTION_DOT": -1.4e-07, "MEAN_MOTION_DDOT": 0}, "tle": {"line1": "1 39166U 13023A   25357.18531481 -.00000014  00000+0  00000+0 0  9991", "line2": "2 39166  54.6430 276.1436 0138540  48.7451 312.4860  2.00564619 92354"}}, "geometry": {"type": "Point", "coordinates": [-53.407030459272434, 35.59311281332098]}}, {"type": "Feature", "properties": {"norad_id": 39533, "name": "GPS BIIF-5  (PRN 30)", "group": "gps-ops", "lat": 36.68218433015443, "lon": -170.2219258777772, "alt_km": 20390.140059881996, "timestamp": "2025-12-24T05:51:19.867640+00:00", "meta": {"OBJECT_NAME": "GPS BIIF-5  (PRN 30)", "OBJECT_ID": "2014-008A", "EPOCH": "2025-12-20T16:28:24.690432", "MEAN_MOTION": 2.00548724, "ECCENTRICITY": 0.00795742, "INCLINATION": 53.6246, "RA_OF_ASC_NODE": 156.6308, "ARG_OF_PERICENTER": 226.1122, "MEAN_ANOMALY": 133.2164, "EPHEMERIS_TYPE": 0, "CLASSIFICATION_TYPE": "U", "NORAD_CAT_ID": 39533, "ELEMENT_SET_NO": 999, "REV_AT_EPOCH": 8610, "BSTAR": 0, "MEAN_MOTION_DOT": 6.5e-07, "MEAN_MOTION_DDOT": 0}, "tle": {"line1": "1 39533U 14008A   25354.68639688  .00000065  00000+0  00000+0 0  9998", "line2": "2 39533  53.6246 156.6308 0079574 226.1122 133.2164  2.00548724 86105"}}, "geometry": {"type": "Point", "coordinates": [-170.2219258777772, 36.68218433015443]}}, {"type": "Feature", "properties": {"norad_id": 39741, "name": "GPS BIIF-6  (PRN 06)", "group": "gps-ops", "lat": -19.319003817789763, "lon": 171.69613558118218, "alt_km": 20230.682018977208, "timestamp": "2025-12-24T05:51:19.867651+00:00", "meta": {"OBJECT_NAME": "GPS BIIF-6  (PRN 06)", "OBJECT_ID": "2014-026A", "EPOCH": "2025-12-23T23:04:28.187904", "MEAN_MOTION": 2.00560551, "ECCENTRICITY": 0.00394556, "INCLINATION": 56.5792, "RA_OF_ASC_NODE": 338.3401, "ARG_OF_PERICENTER": 319.3148, "MEAN_ANOMALY": 40.3961, "EPHEMERIS_TYPE": 0, "CLASSIFICATION_TYPE": "U", "NORAD_CAT_ID": 39741, "ELEMENT_SET_NO": 999, "REV_AT_EPOCH": 8502, "BSTAR": 0, "MEAN_MOTION_DOT": -6e-07, "MEAN_MOTION_DDOT": 0}, "tle": {"line1": "1 39741U 14026A   25357.96143736 -.00000060  00000+0  00000+0 0  9993", "line2": "2 39741  56.5792 338.3401 0039455 319.3148  40.3961  2.00560551 85029"}}, "geometry": {"type": "Point", "coordinates": [171.69613558118218, -19.319003817789763]}}, {"type": "Feature", "properties": {"norad_id": 40105, "name": "GPS BIIF-7  (PRN 09)", "group": "gps-ops", "lat": 30.504657484677207, "lon": -108.67172798380244, "alt_km": 20097.66664088985, "timestamp": "2025-12-24T05:51:19.867663+00:00", "meta": {"OBJECT_NAME": "GPS BIIF-7  (PRN 09)", "OBJECT_ID": "2014-045A", "EPOCH": "2025-12-23T13:11:32.096256", "MEAN_MOTION": 2.00573211, "ECCENTRICITY": 0.00324114, "INCLINATION": 55.2352, "RA_OF_ASC_NODE": 95.4677, "ARG_OF_PERICENTER": 120.1575, "MEAN_ANOMALY": 240.1743, "EPHEMERIS_TYPE": 0, "CLASSIFICATION_TYPE": "U", "NORAD_CAT_ID": 40105, "ELEMENT_SET_NO": 999, "REV_AT_EPOCH": 8255, "BSTAR": 0, "MEAN_MOTION_DOT": 8e-08, "MEAN_MOTION_DDOT": 0}, "tle": {"line1": "1 40105U 14045A   25357.54967704  .00000008  00000+0  00000+0 0  9994", "line2": "2 40105  55.2352  95.4677 0032411 120.1575 240.1743  2.00573211 82556"}}, "geometry": {"type": "Point", "coordinates": [-108.67172798380244, 30.504657484677207]}}, {"type": "Feature", "properties": {"norad_id": 40294, "name": "GPS BIIF-8  (PRN 03)", "group": "gps-ops", "lat": -39.95175173788735, "lon": -109.12917387435856, "alt_km": 20339.898867815322, "timestamp": "2025-12-24T05:51:19.867674+00:00", "meta": {"OBJECT_NAME": "GPS BIIF-8  (PRN 03)", "OBJECT_ID": "2014-068A", "EPOCH": "2025-12-23T10:16:22.808064", "MEAN_MOTION": 2.00565491, "ECCENTRICITY": 0.00608386, "INCLINATION": 56.8656, "RA_OF_ASC_NODE": 37.7327, "ARG_OF_PERICENTER": 68.9718, "MEAN_ANOMALY": 291.747, "EPHEMERIS_TYPE": 0, "CLASSIFICATION_TYPE": "U", "NORAD_CAT_ID": 40294, "ELEMENT_SET_NO": 999, "REV_AT_EPOCH": 8168, "BSTAR": 0, "MEAN_MOTION_DOT": -4.8e-07, "MEAN_MOTION_DDOT": 0}, "tle": {"line1": "1 40294U 14068A   25357.42804176 -.00000048  00000+0  00000+0 0  9993", "line2": "2 40294  56.8656  37.7327 0060838  68.9718 291.7470  2.00565491 81685"}}, "geometry": {"type": "Point", "coordinates": [-109.12917387435856, -39.95175173788735]}}]}